[Satellite]
VERSION=1.1
NAME=COSMOS 2084
NICKNAME=COSMOS 2084
TLE1=1 20663U 90055A   20158.12727993 -.00000034  00000-0  14575-4 0  9996
TLE2=2 20663  62.7940 206.0027 0029129 256.2434 103.5417 14.92087753621672
STATUS=0
